[{"OBJECT_NAME":"STARLINK-4177","OBJECT_ID":"2022-076AD","EPOCH":"2026-03-09T08:42:24.782112","MEAN_MOTION":15.08842063,"ECCENTRICITY":0.00015946,"INCLINATION":53.2182,"RA_OF_ASC_NODE":85.5848,"ARG_OF_PERICENTER":104.1045,"MEAN_ANOMALY":256.0125,"EPHEMERIS_TYPE":0,"CLASSIFICATION_TYPE":"U","NORAD_CAT_ID":53013,"ELEMENT_SET_NO":999,"REV_AT_EPOCH":20293,"BSTAR":0.00012077322,"MEAN_MOTION_DOT":1.635e-5,"MEAN_MOTION_DDOT":0},{"OBJECT_NAME":"COSMOS 252 DEB","OBJECT_ID":"1968-097EJ","EPOCH":"2026-03-08T03:14:49.249536","MEAN_MOTION":13.20252107,"ECCENTRICITY":0.08649847,"INCLINATION":62.3495,"RA_OF_ASC_NODE":342.3911,"ARG_OF_PERICENTER":136.4436,"MEAN_ANOMALY":230.8291,"EPHEMERIS_TYPE":0,"CLASSIFICATION_TYPE":"U","NORAD_CAT_ID":18431,"ELEMENT_SET_NO":999,"REV_AT_EPOCH":43500,"BSTAR":0.00032551116,"MEAN_MOTION_DOT":9.11e-6,"MEAN_MOTION_DDOT":0}]
